[{"OBJECT_NAME":"OBJECT B","OBJECT_ID":"2024-203B","EPOCH":"2026-03-09T23:52:52.928256","MEAN_MOTION":15.27506959,"ECCENTRICITY":0.00103904,"INCLINATION":97.4268,"RA_OF_ASC_NODE":139.5887,"ARG_OF_PERICENTER":321.1475,"MEAN_ANOMALY":38.9016,"EPHEMERIS_TYPE":0,"CLASSIFICATION_TYPE":"U","NORAD_CAT_ID":61870,"ELEMENT_SET_NO":999,"REV_AT_EPOCH":7381,"BSTAR":0.00063263842,"MEAN_MOTION_DOT":0.00016997,"MEAN_MOTION_DDOT":0},{"OBJECT_NAME":"STARLINK-34867","OBJECT_ID":"2025-195B","EPOCH":"2026-03-09T18:07:16.043520","MEAN_MOTION":15.30209726,"ECCENTRICITY":0.00012203,"INCLINATION":53.156,"RA_OF_ASC_NODE":257.8795,"ARG_OF_PERICENTER":122.2141,"MEAN_ANOMALY":237.8979,"EPHEMERIS_TYPE":0,"CLASSIFICATION_TYPE":"U","NORAD_CAT_ID":65459,"ELEMENT_SET_NO":999,"REV_AT_EPOCH":3000,"BSTAR":0.00086453483,"MEAN_MOTION_DOT":0.00025341,"MEAN_MOTION_DDOT":0}]
